STARLINK-4057
1 53269U 22086AD  26061.16668981  .01287795  00000+0  93833-2 0  9999
2 53269  53.2171 211.2828 0000869  74.7807 104.3449 15.69991559  5847
STARLINK-11337 [DTC]
1 61940U 24209B   26061.12518471  .00376597  00000+0  29404-2 0  9998
2 61940  53.1562  48.2716 0001259 169.3801 190.7244 15.69987085 75532
STARLINK-11423 [DTC]
1 61950U 24209M   26061.14970977  .00376906  00000+0  29390-2 0  9992
2 61950  53.1570  48.4339 0001448 176.1121 183.9908 15.70018339 75536
STARLINK-11395 [DTC]
1 61951U 24209N   26061.14480509  .00366553  00000+0  28633-2 0  9996
2 61951  53.1570  48.3978 0000772 167.7100 192.3937 15.70006343 75490
